{
    "links": {
        "self": "http://www.neowsapp.com/rest/v1/neo/3647189?api_key=iIulBulltgU6a56xZRHN4H3l9WmuAYTsLGpBGhQ2"
    },
    "id": "3647189",
    "neo_reference_id": "3647189",
    "name": "(2013 RN9)",
    "designation": "2013 RN9",
    "nasa_jpl_url": "http://ssd.jpl.nasa.gov/sbdb.cgi?sstr=3647189",
    "absolute_magnitude_h": 23.9,
    "estimated_diameter": {
        "kilometers": {
            "estimated_diameter_min": 0.04411182,
            "estimated_diameter_max": 0.0986370281
        },
        "meters": {
            "estimated_diameter_min": 44.1118199997,
            "estimated_diameter_max": 98.6370281305
        },
        "miles": {
            "estimated_diameter_min": 0.0274098057,
            "estimated_diameter_max": 0.0612901888
        },
        "feet": {
            "estimated_diameter_min": 144.7238235278,
            "estimated_diameter_max": 323.6123073718
        }
    },
    "is_potentially_hazardous_asteroid": false,
    "close_approach_data": [
        {
            "close_approach_date": "2013-10-09",
            "close_approach_date_full": "2013-Oct-09 08:37",
            "epoch_date_close_approach": 1381307820000,
            "relative_velocity": {
                "kilometers_per_second": "9.3856399167",
                "kilometers_per_hour": "33788.3036999948",
                "miles_per_hour": "20994.7379295884"
            },
            "miss_distance": {
                "astronomical": "0.0748056937",
                "lunar": "29.0994148493",
                "kilometers": "11190772.441392419",
                "miles": "6953623.5512726222"
            },
            "orbiting_body": "Earth"
        },
        {
            "close_approach_date": "2015-09-13",
            "close_approach_date_full": "2015-Sep-13 14:30",
            "epoch_date_close_approach": 1442154600000,
            "relative_velocity": {
                "kilometers_per_second": "18.8946221191",
                "kilometers_per_hour": "68020.6396285987",
                "miles_per_hour": "42265.3802181146"
            },
            "miss_distance": {
                "astronomical": "0.2636931156",
                "lunar": "102.5766219684",
                "kilometers": "39447928.427423772",
                "miles": "24511806.0972491736"
            },
            "orbiting_body": "Earth"
        }
    ],
    "orbital_data": {
        "orbit_id": "11",
        "orbit_determination_date": "2017-04-06 08:44:53",
        "first_observation_date": "2013-09-02",
        "last_observation_date": "2013-09-22",
        "data_arc_in_days": 20,
        "observations_used": 30,
        "orbit_uncertainty": "8",
        "minimum_orbit_intersection": ".0151153",
        "jupiter_tisserand_invariant": "4.304",
        "epoch_osculation": "2456543.5",
        "eccentricity": ".4660735730508384",
        "semi_major_axis": "1.559158828509519",
        "inclination": "3.504343943123709",
        "ascending_node_longitude": "324.6327651338391",
        "orbital_period": "711.105379606671",
        "perihelion_distance": ".8324761023523282",
        "perihelion_argument": "105.9125455141263",
        "aphelion_distance": "2.28584155466671",
        "perihelion_time": "2456615.918226301331",
        "mean_anomaly": "323.3379774416846",
        "mean_motion": ".5062540803714977",
        "equinox": "J2000",
        "orbit_class": {
            "orbit_class_type": "APO",
            "orbit_class_description": "Near-Earth asteroid orbits which cross the Earth’s orbit similar to that of 1862 Apollo",
            "orbit_class_range": "a (semi-major axis) > 1.0 AU; q (perihelion) < 1.017 AU"
        }
    },
    "is_sentry_object": false
}